#aV2015  9 27  0  0  0.00000000     288 DD+AD WGS84 FIT  NGA
## 1864      0.00000000   300.00000000 57292 0.0000000000000
+   31     1  2  3  4  5  6  7  8  9 11 12 13 14 15 16 17 18
+         19 20 21 22 23 24 25 26 27 28 29 30 31 32  0  0  0
+          0  0  0  0  0  0  0  0  0  0  0  0  0  0  0  0  0
+          0  0  0  0  0  0  0  0  0  0  0  0  0  0  0  0  0
+          0  0  0  0  0  0  0  0  0  0  0  0  0  0  0  0  0
++         2  2  2  2  2  2  2  2  2  2  2  2  2  2  2  2  2
++         2  2  2  2  2  2  2  2  2  2  2  2  2  2  0  0  0
++         0  0  0  0  0  0  0  0  0  0  0  0  0  0  0  0  0
++         0  0  0  0  0  0  0  0  0  0  0  0  0  0  0  0  0
++         0  0  0  0  0  0  0  0  0  0  0  0  0  0  0  0  0
%c cc cc ccc ccc cccc cccc cccc cccc ccccc ccccc ccccc ccccc
%c cc cc ccc ccc cccc cccc cccc cccc ccccc ccccc ccccc ccccc
%f  0.0000000  0.000000000  0.00000000000  0.000000000000000
%f  0.0000000  0.000000000  0.00000000000  0.000000000000000
%i    0    0    0    0      0      0      0      0         0
%i    0    0    0    0      0      0      0      0         0
/*      NGA, ST. LOUIS,MO.                                  
/*   EPHEMERIS COMPUTED FROM  1 DAYS OF DATA                
/*   EPOCHA SMOOTHER                                       
/* CCCCCCCCCCCCCCCCCCCCCCCCCCCCCCCCCCCCCCCCCCCCCCCCCCCCCCCCC
*  2015  9 27 17  5  0.00000000
P  1  21921.161755  12119.025217   9062.025972      1.282275                    
V  1   6738.985085   9666.709796 -28805.024702      0.007119                    
P  2 -11248.559769 -21377.594143  11906.497680    590.630233                    
V  2  12453.195037   7658.096593  25937.746295      0.014738                    
P  3  14394.044453   5222.265881  21708.405298     21.218844                    
V  3  -6463.275470  26783.194395  -2181.823341     -0.002019                    
P  4  19695.535934  18029.509066   -249.867428    -25.416461                    
V  4  -2098.937926   2468.060578 -31130.358579     -0.044120                    
P  5  -3835.141647 -23183.100842 -12250.543450   -191.002833                    
V  5   6145.631651 -14573.945455  25971.770377      0.039968                    
P  6    247.689866 -18195.280564  19345.911371     66.161216                    
V  6  18822.654419  15835.588602  14642.288631      0.072112                    
P  7  18049.545311   -994.468215 -19467.251910    484.031940                    
V  7  16997.386608  18140.339129  14357.136104     -0.007460                    
P  8  18014.070953   7576.424959 -17935.740388     -6.764053                    
V  8 -21377.574575   8290.952153 -17936.907694     -0.013353                    
P  9  25372.729103  -7884.973634    -56.967074     -7.032206                    
V  9    933.516377   2797.670791  31645.698627      0.025401                    
P 11  24437.583915  10516.981578   -218.223098   -606.770808                    
V 11  -1557.474897   4577.972632 -30148.127869     -0.023342                    
P 12 -12342.426305  -8735.383312  21755.815683    331.901327                    
V 12   7872.107734 -26627.026734  -5991.945214      0.033659                    
P 13  -7875.082110 -13499.286638 -21592.806178   -152.414676                    
V 13  26540.109254  -5431.753401  -6427.845071     -0.029393                    
P 14 -16744.532151  14323.822943  14969.911327     31.834545                    
V 14 -18605.117433   2094.992252 -23358.328713     -0.026097                    
P 15 -19331.947886  -6621.973388 -17234.695688   -273.852863                    
V 15  19701.181046  -9221.469841 -18329.356546     -0.020357                    
P 16   1470.676652  23233.666118 -12510.537802    -82.210804                    
V 16  -6324.436137  14639.469082  26971.922773      0.038755                    
P 17  15793.252219 -14886.909997  15464.212990   -189.141622                    
V 17  18998.038986  -3017.035032 -22960.134436     -0.013253                    
P 18 -15087.968511  14465.685429 -15716.383712    437.699057                    
V 18   1432.741203 -21262.197886 -20579.546167      0.033857                    
P 19  24655.975643   2282.371888 -10442.781558   -520.725799                    
V 19 -12142.642369   4320.834497 -27905.904230     -0.005877                    
P 20 -14360.365856  -8784.212462 -20684.092094    358.674093                    
V 20   4920.981600 -25617.451309   7598.154901      0.030288                    
P 21 -16286.443038   4970.194764 -19751.212510   -482.770415                    
V 21 -19031.061766 -18739.422422  10278.096032     -0.027183                    
P 22  -9232.624599  24149.460810  -5426.135369    395.461156                    
V 22  -2477.846314  -7934.653420 -29973.778229      0.037030                    
P 23  23789.759848   2040.827627  12251.845424   -135.647117                    
V 23 -13852.334304   6584.790698  25725.311239     -0.021800                    
P 24 -21929.005410 -13720.783013   6351.839003     -5.410860                    
V 24  -4091.872169  -7526.988414 -30069.748163     -0.006759                    
P 25 -15574.032838   6097.405385  20490.040132    -44.553245                    
V 25   5090.414315 -25756.279024  11636.683151     -0.052813                    
P 26  -4353.141450  26099.344230  -2259.895128    -65.666843                    
V 26  -3379.734846   2168.617195  31591.041839     -0.119385                    
P 27   5856.408969  13934.358380 -21871.437568     23.030885                    
V 27 -26427.746648   8220.779773  -1721.887495      0.029967                    
P 28  12278.357168 -21883.217777  -7950.905712    470.496522                    
V 28  -1371.513740  11046.901014 -30252.769626      0.025744                    
P 29 -26007.341270   4780.968306   2279.707326    636.589114                    
V 29   2221.795794  -3025.482846  31903.345774      0.021249                    
P 30  10204.122392 -11535.065285 -21636.322878     31.752107                    
V 30  18808.186795  20061.748023  -1906.781303      0.064217                    
P 31   -252.318656  18284.846360  19264.513102    301.312474                    
V 31 -18076.754400 -16246.904686  15617.744690     -0.014072                    
P 32   7634.969859  18302.904003  17868.694102    -31.019858                    
V 32  -8349.401936  21087.880667 -17447.893904      0.111656                    
EOF
